NOAA 15                 
1 25338U 98030A   25272.22725385  .00000314  00000+0  14649-3 0  9997
2 25338  98.5306 294.6485 0010911  37.7668 322.4277 14.27024535424078

NOAA 18                 
1 28654U 05018A   25272.24151787  .00000203  00000+0  13078-3 0  9998
2 28654  98.8353 350.4280 0014509 168.5543 191.5962 14.13643353 49443

NOAA 19                 
1 33591U 09005A   25272.12437244  .00000150  00000+0  10384-3 0  9994
2 33591  98.9864 337.3994 0014510  51.8345 308.4131 14.13412488857604

CUTE-1 (CO-55)          
1 27844U 03031E   25271.90575362  .00000693  00000+0  32046-3 0  9991
2 27844  98.6789 278.7623 0008807 219.3562 140.6977 14.24083299154488

EYESAT A (AO-27)        
1 22825U 93061C   25272.10577060  .00000254  00000+0  11400-3 0  9991
2 22825  98.7249 334.1567 0009093 140.9960 219.1880 14.30835372669667

OSCAR 7 (AO-7)          
1 07530U 74089B   25271.88615216 -.00000040  00000+0  43819-4 0  9990
2 07530 101.9984 277.3522 0011918 270.2653 158.3104 12.53691884327777

METEOR 2-4              
1 11288U 79021A   25271.37846004  .00000282  00000+0  14611-3 0  9995
2 11288  81.2192  34.6386 0023017 321.0807  38.8707 14.12274834398064

METEOR 2-3              
1 10514U 77117A   25272.00251127  .00000152  00000+0  77419-4 0  9999
2 10514  81.2063 142.0390 0023858 355.5175   4.5779 14.11141414457986

METEOR-M2 3             
1 57166U 23091A   25272.28236698  .00000028  00000+0  31334-4 0  9999
2 57166  98.6494 327.0769 0003619 193.0043 167.1043 14.24012316117386

METEOR-M2 4             
1 59051U 24039A   25272.28136142  .00000114  00000+0  70630-4 0  9998
2 59051  98.6623 230.4058 0006554 196.6941 163.4022 14.22383267 82178

METEOR-M 2              
1 40069U 14037A   25272.27053278  .00000343  00000+0  17627-3 0  9991
2 40069  98.4813 252.7400 0006942  77.1802 283.0151 14.21339881582252

METEOR-M2 2             
1 44387U 19038A   25272.27073169  .00000331  00000+0  16344-3 0  9997
2 44387  98.8878 251.1177 0002238  66.8113 293.3301 14.24243216324155

